[{"OBJECT_NAME":"STARLINK-1641","OBJECT_ID":"2020-057BK","EPOCH":"2026-03-09T21:49:31.896480","MEAN_MOTION":15.50347057,"ECCENTRICITY":4.118e-5,"INCLINATION":53.0502,"RA_OF_ASC_NODE":283.9292,"ARG_OF_PERICENTER":183.3564,"MEAN_ANOMALY":176.7442,"EPHEMERIS_TYPE":0,"CLASSIFICATION_TYPE":"U","NORAD_CAT_ID":46174,"ELEMENT_SET_NO":999,"REV_AT_EPOCH":30654,"BSTAR":0.00068917164,"MEAN_MOTION_DOT":0.00039511,"MEAN_MOTION_DDOT":0},{"OBJECT_NAME":"CZ-11 DEB","OBJECT_ID":"2025-255B","EPOCH":"2026-03-09T22:54:27.037440","MEAN_MOTION":15.52392921,"ECCENTRICITY":0.00133106,"INCLINATION":52.9927,"RA_OF_ASC_NODE":120.0728,"ARG_OF_PERICENTER":327.0296,"MEAN_ANOMALY":32.9881,"EPHEMERIS_TYPE":0,"CLASSIFICATION_TYPE":"U","NORAD_CAT_ID":66377,"ELEMENT_SET_NO":999,"REV_AT_EPOCH":1872,"BSTAR":0.00089565046,"MEAN_MOTION_DOT":0.00055721,"MEAN_MOTION_DDOT":0}]
